[{"OBJECT_NAME":"OBJECT D","OBJECT_ID":"2024-173D","EPOCH":"2026-03-09T23:30:29.956896","MEAN_MOTION":15.27005733,"ECCENTRICITY":0.00090093,"INCLINATION":97.3606,"RA_OF_ASC_NODE":149.3901,"ARG_OF_PERICENTER":241.6081,"MEAN_ANOMALY":118.425,"EPHEMERIS_TYPE":0,"CLASSIFICATION_TYPE":"U","NORAD_CAT_ID":61230,"ELEMENT_SET_NO":999,"REV_AT_EPOCH":8130,"BSTAR":0.00072064626,"MEAN_MOTION_DOT":0.00019078,"MEAN_MOTION_DDOT":0},{"OBJECT_NAME":"STARLINK-34026","OBJECT_ID":"2025-093G","EPOCH":"2026-03-09T09:21:04.361184","MEAN_MOTION":15.27569695,"ECCENTRICITY":0.00012596,"INCLINATION":42.9984,"RA_OF_ASC_NODE":79.827,"ARG_OF_PERICENTER":273.7064,"MEAN_ANOMALY":86.3644,"EPHEMERIS_TYPE":0,"CLASSIFICATION_TYPE":"U","NORAD_CAT_ID":63842,"ELEMENT_SET_NO":999,"REV_AT_EPOCH":4770,"BSTAR":0.0012628556,"MEAN_MOTION_DOT":0.00034641,"MEAN_MOTION_DDOT":0}]
